NORAD_CAT_ID,OBJECT_NAME,OBJECT_TYPE,EPOCH,MEAN_MOTION,ECCENTRICITY,INCLINATION,RA_OF_ASC_NODE,ARG_OF_PERICENTER,MEAN_ANOMALY,BSTAR,MEAN_MOTION_DOT,MEAN_MOTION_DDOT,TLE_LINE0,TLE_LINE1,TLE_LINE2,SEMIMAJOR_AXIS,PERIOD,APOGEE,PERIGEE,DECAYED
55426.0,STARLINK-5638,PAYLOAD,2023-04-12 03:42:54,15.69932775,0.0003248,69.9992,251.5793,271.4219,88.6604,2.5669e-05,2.876e-05,0.0,0 STARLINK-5638,1 55426U 23014AM  23102.15479319  .00002876  00000-0  25669-4 0  9994,2 55426  69.9992 251.5793 0003248 271.4219  88.6604 15.69932775 11269,6737.226,91.724,361.28,356.903,0.0
55426.0,STARLINK-5638,PAYLOAD,2023-04-12 11:21:39,15.69931384,0.0003011,69.9989,250.6817,262.9962,97.0891,1.2039e-05,1.236e-05,0.0,0 STARLINK-5638,1 55426U 23014AM  23102.47337707  .00001236  00000-0  12039-4 0  9999,2 55426  69.9989 250.6817 0003011 262.9962  97.0891 15.69931384 12257,6737.23,91.724,361.124,357.067,0.0
55426.0,STARLINK-5638,PAYLOAD,2023-04-13 02:39:10,15.69921545,0.0005146,69.9993,248.8935,263.1101,96.951,-5.9284e-06,-9.27e-06,0.0,0 STARLINK-5638,1 55426U 23014AM  23103.11054176 -.00000927  00000-0 -59284-5 0  9999,2 55426  69.9993 248.8935 0005146 263.1101  96.9510 15.69921545 12356,6737.258,91.724,362.59,355.656,0.0
55426.0,STARLINK-5638,PAYLOAD,2023-04-13 16:24:56,15.69940706,0.0003901,69.9982,247.2811,263.9408,96.1343,2.634e-05,2.958e-05,0.0,0 STARLINK-5638,1 55426U 23014AM  23103.68398917  .00002958  00000-0  26340-4 0  9995,2 55426  69.9982 247.2811 0003901 263.9408  96.1343 15.69940706 11507,6737.204,91.723,361.697,356.44,0.0
55426.0,STARLINK-5638,PAYLOAD,2023-04-13 17:56:36,15.70054769,0.0004967,69.9992,247.101,262.9309,97.1322,0.00025199,0.00030372,0.0,0 STARLINK-5638,1 55426U 23014AM  23103.74764844  .00030372  00000-0  25199-3 0  9999,2 55426  69.9992 247.1010 0004967 262.9309  97.1322 15.70054769 12450,6736.877,91.717,362.089,355.396,0.0
55426.0,STARLINK-5638,PAYLOAD,2023-04-15 18:52:46,15.69924255,0.0003271,69.9992,241.3695,267.3694,92.7128,6.1445e-06,5.26e-06,0.0,0 STARLINK-5638,1 55426U 23014AM  23105.78665114  .00000526  00000-0  61445-5 0  9999,2 55426  69.9992 241.3695 0003271 267.3694  92.7128 15.69924255 11838,6737.251,91.724,361.319,356.912,0.0
55426.0,STARLINK-5638,PAYLOAD,2023-04-16 11:42:02,15.69932089,0.0003372,70.0005,239.3996,270.7473,89.3337,2.843e-05,3.208e-05,0.0,0 STARLINK-5638,1 55426U 23014AM  23106.48753272  .00003208  00000-0  28430-4 0  9996,2 55426  70.0005 239.3996 0003372 270.7473  89.3337 15.69932089 12886,6737.228,91.724,361.365,356.821,0.0
55426.0,STARLINK-5638,PAYLOAD,2023-04-16 17:49:03,15.69936536,0.0003105,70.0009,238.6834,268.3988,91.6852,4.6743e-05,5.414e-05,0.0,0 STARLINK-5638,1 55426U 23014AM  23106.74239860  .00005414  00000-0  46743-4 0  9995,2 55426  70.0009 238.6834 0003105 268.3988  91.6852 15.69936536 12925,6737.216,91.723,361.172,356.989,0.0
55426.0,STARLINK-5638,PAYLOAD,2023-04-17 12:10:04,15.69925901,0.0002306,70.0029,236.5316,253.8288,106.2654,1.2876e-05,1.336e-05,0.0,0 STARLINK-5638,1 55426U 23014AM  23107.50700202  .00001336  00000-0  12876-4 0  9992,2 55426  70.0029 236.5316 0002306 253.8288 106.2654 15.69925901 12100,6737.246,91.724,360.665,357.557,0.0
55426.0,STARLINK-5638,PAYLOAD,2023-04-17 18:17:06,15.69896942,0.0003214,70.0008,235.817,262.1946,97.8885,-4.3418e-05,-5.424e-05,0.0,0 STARLINK-5638,1 55426U 23014AM  23107.76188085 -.00005424  00000-0 -43418-4 0  9999,2 55426  70.0008 235.8170 0003214 262.1946  97.8885 15.69896942 12147,6737.329,91.726,361.359,357.028,0.0
55426.0,STARLINK-5638,PAYLOAD,2023-04-18 09:34:36,15.69922641,0.0002803,70.0028,234.0238,262.8677,97.22,3.9551e-06,2.63e-06,0.0,0 STARLINK-5638,1 55426U 23014AM  23108.39903740  .00000263  00000-0  39551-5 0  9990,2 55426  70.0028 234.0238 0002803 262.8677  97.2200 15.69922641 12248,6737.255,91.724,361.009,357.232,0.0
55426.0,STARLINK-5638,PAYLOAD,2023-04-18 18:45:07,15.69926943,0.0002956,70.0021,232.949,265.985,94.1008,8.5679e-06,8.18e-06,0.0,0 STARLINK-5638,1 55426U 23014AM  23108.78133531  .00000818  00000-0  85679-5 0  9994,2 55426  70.0021 232.9490 0002956 265.9850  94.1008 15.69926943 13246,6737.243,91.724,361.1,357.116,0.0
55426.0,STARLINK-5638,PAYLOAD,2023-04-19 11:34:22,15.69927528,0.00058,70.0017,230.9772,257.5563,102.4984,1.3739e-05,1.439e-05,0.0,0 STARLINK-5638,1 55426U 23014AM  23109.48221035  .00001439  00000-0  13739-4 0  9996,2 55426  70.0017 230.9772 0005800 257.5563 102.4984 15.69927528 12415,6737.241,91.724,363.014,355.199,0.0
55426.0,STARLINK-5638,PAYLOAD,2023-04-19 17:42:26,15.68921266,0.0004269,69.9994,230.2622,269.582,90.4886,-0.0016206,-0.00183205,0.0,0 STARLINK-5638,1 55426U 23014AM  23109.73780495 -.00183205  00000-0 -16206-2 0  9998,2 55426  69.9994 230.2622 0004269 269.5820  90.4886 15.68921266 13397,6740.122,91.783,364.864,359.109,0.0
55426.0,STARLINK-5638,PAYLOAD,2023-04-20 14:00:01,15.66380456,0.0003411,70.0009,227.8937,273.329,176.6747,-0.009378,-0.00891764,0.0,0 STARLINK-5638,1 55426U 23014AM  23110.58334491 -.00891764  00000-0 -93780-2 0  9992,2 55426  70.0009 227.8937 0003411 273.3290 176.6747 15.66380456  1309,6747.409,91.932,371.575,366.972,0.0
55426.0,STARLINK-5638,PAYLOAD,2023-04-20 22:00:00,15.65776605,0.000327,70.0007,226.9619,273.8382,254.8592,-0.010529,-0.00969222,0.0,0 STARLINK-5638,1 55426U 23014AM  23110.91667824 -.00969222  00000-0 -10529-1 0  9992,2 55426  70.0007 226.9619 0003270 273.8382 254.8592 15.65776605  1305,6749.143,91.967,373.215,368.801,0.0
55426.0,STARLINK-5638,PAYLOAD,2023-04-21 14:00:01,15.64426712,0.0003673,70.0012,225.1013,270.6872,53.1065,-0.01024,-0.00899725,0.0,0 STARLINK-5638,1 55426U 23014AM  23111.58334491 -.00899725  00000-0 -10240-1 0  9997,2 55426  70.0012 225.1013 0003673 270.6872  53.1065 15.64426712  1301,6753.025,92.046,377.37,372.41,0.0
55426.0,STARLINK-5638,PAYLOAD,2023-04-21 22:00:00,15.63807357,0.0003699,70.0006,224.1722,271.9479,128.1943,-0.011075,-0.00945001,0.0,0 STARLINK-5638,1 55426U 23014AM  23111.91667824 -.00945001  00000-0 -11075-1 0  9999,2 55426  70.0006 224.1722 0003699 271.9479 128.1943 15.63807357 12795,6754.808,92.083,379.172,374.174,0.0
55426.0,STARLINK-5638,PAYLOAD,2023-04-22 14:00:01,15.62454106,0.0003584,70.0007,222.3166,271.9319,278.6125,-0.010667,-0.00869773,0.0,0 STARLINK-5638,1 55426U 23014AM  23112.58334491 -.00869773  00000-0 -10667-1 0  9991,2 55426  70.0007 222.3166 0003584 271.9319 278.6125 15.62454106 12897,6758.708,92.163,382.995,378.15,0.0
55426.0,STARLINK-5638,PAYLOAD,2023-04-22 22:00:01,15.61860747,0.0003475,70.0004,221.3903,270.295,354.3116,-0.012246,-0.00965807,0.0,0 STARLINK-5638,1 55426U 23014AM  23112.91668981 -.00965807  00000-0 -12246-1 0  9992,2 55426  70.0004 221.3903 0003475 270.2950 354.3116 15.61860747  1301,6760.419,92.198,384.634,379.935,0.0
55426.0,STARLINK-5638,PAYLOAD,2023-04-23 06:00:00,15.6119045,0.0003566,70.0007,220.4653,266.3224,71.4567,-0.011853,-0.00915667,0.0,0 STARLINK-5638,1 55426U 23014AM  23113.25001157 -.00915667  00000-0 -11853-1 0  9998,2 55426  70.0007 220.4653 0003566 266.3224  71.4567 15.61190450 13001,6762.354,92.237,386.631,381.808,0.0
55426.0,STARLINK-5638,PAYLOAD,2023-04-23 14:00:01,15.6049784,0.0003537,70.0005,219.5408,274.4582,135.7933,-0.011483,-0.00868014,0.0,0 STARLINK-5638,1 55426U 23014AM  23113.58334491 -.00868014  00000-0 -11483-1 0  9996,2 55426  70.0005 219.5408 0003537 274.4582 135.7933 15.60497840  1304,6764.355,92.278,388.613,383.827,0.0
55426.0,STARLINK-5638,PAYLOAD,2023-04-23 22:00:00,15.59899334,0.0003365,69.9999,218.617,273.4753,208.4299,-0.013094,-0.00958046,0.0,0 STARLINK-5638,1 55426U 23014AM  23113.91667824 -.00958046  00000-0 -13094-1 0  9997,2 55426  69.9999 218.6170 0003365 273.4753 208.4299 15.59899334  1302,6766.085,92.314,390.227,385.673,0.0
55426.0,STARLINK-5638,PAYLOAD,2023-04-24 06:00:00,15.59239313,0.000327,70.0,217.6943,264.3583,288.4323,-0.012931,-0.00925695,0.0,0 STARLINK-5638,1 55426U 23014AM  23114.25001157 -.00925695  00000-0 -12931-1 0  9999,2 55426  70.0000 217.6943 0003270 264.3583 288.4323 15.59239313 13168,6767.994,92.353,392.073,387.646,0.0
55426.0,STARLINK-5638,PAYLOAD,2023-04-24 14:00:01,15.58536987,0.0003331,70.0001,216.7722,270.9163,352.0029,-0.012227,-0.00858373,0.0,0 STARLINK-5638,1 55426U 23014AM  23114.58334491 -.00858373  00000-0 -12227-1 0  9991,2 55426  70.0001 216.7722 0003331 270.9163 352.0029 15.58536987  1309,6770.027,92.394,394.148,389.637,0.0
55426.0,STARLINK-5638,PAYLOAD,2023-04-25 14:00:01,15.5658682,0.0003195,69.9995,214.0124,275.4069,193.2014,-0.013328,-0.00868528,0.0,0 STARLINK-5638,1 55426U 23014AM  23115.58335648 -.00868528  00000-0 -13328-1 0  9993,2 55426  69.9995 214.0124 0003195 275.4069 193.2014 15.56586820 13365,6775.681,92.51,399.711,395.381,0.0
55426.0,STARLINK-5638,PAYLOAD,2023-04-26 14:00:01,15.54635777,0.0003378,69.9995,211.2602,273.0252,34.1023,-0.014457,-0.00875799,0.0,0 STARLINK-5638,1 55426U 23014AM  23116.58334491 -.00875799  00000-0 -14457-1 0  9991,2 55426  69.9995 211.2602 0003378 273.0252  34.1023 15.54635777  1304,6781.349,92.626,405.504,400.923,0.0
55426.0,STARLINK-5638,PAYLOAD,2023-04-26 22:00:00,15.5400633,0.000339,69.9992,210.3445,272.6811,99.0721,-0.015686,-0.00923774,0.0,0 STARLINK-5638,1 55426U 23014AM  23116.91667824 -.00923774  00000-0 -15686-1 0  9999,2 55426  69.9992 210.3445 0003390 272.6811  99.0721 15.54006330  1308,6783.18,92.664,407.344,402.745,0.0
55426.0,STARLINK-5638,PAYLOAD,2023-04-27 06:00:02,15.53374206,0.0003369,69.9994,209.4298,269.995,165.6583,-0.016254,-0.00934304,0.0,0 STARLINK-5638,1 55426U 23014AM  23117.25002315 -.00934304  00000-0 -16254-1 0  9998,2 55426  69.9994 209.4298 0003369 269.9950 165.6583 15.53374206 13627,6785.02,92.701,409.171,404.599,0.0
55426.0,STARLINK-5638,PAYLOAD,2023-04-27 14:00:01,15.52674762,0.0003252,69.9993,208.5162,275.6496,223.0894,-0.015403,-0.00869241,0.0,0 STARLINK-5638,1 55426U 23014AM  23117.58335648 -.00869241  00000-0 -15403-1 0  9994,2 55426  69.9993 208.5162 0003252 275.6496 223.0894 15.52674762  1301,6787.057,92.743,411.129,406.715,0.0
